{"type":"FeatureCollection","crs":{"type":"name","properties":{"name":"EPSG:4326"}},"features":[{"type":"Feature","geometry":{"type":"Polygon","coordinates":[[[-76.6576,39.27567],[-76.6577,39.27583],[-76.65818,39.27538],[-76.65849,39.27476],[-76.65913,39.27451],[-76.65963,39.27456],[-76.66022,39.27486],[-76.6615,39.27624],[-76.66204,39.2762],[-76.66175,39.27638],[-76.66187,39.27663],[-76.66459,39.27601],[-76.66519,39.27541],[-76.66589,39.27572],[-76.66914,39.27573],[-76.67149,39.27591],[-76.67499,39.27521],[-76.67577,39.27411],[-76.67641,39.2742],[-76.67708,39.27474],[-76.67735,39.27525],[-76.67833,39.27601],[-76.67925,39.27701],[-76.68079,39.27717],[-76.68127,39.27681],[-76.68217,39.27726],[-76.68295,39.27685],[-76.68297,39.27655],[-76.68347,39.27642],[-76.68491,39.27537],[-76.68547,39.27529],[-76.68662,39.27543],[-76.68815,39.27459],[-76.68859,39.27408],[-76.68877,39.2734],[-76.68944,39.27218],[-76.69269,39.27183],[-76.69375,39.2747],[-76.69514,39.27632],[-76.69576,39.27764],[-76.69572,39.27794],[-76.69472,39.27928],[-76.69456,39.28003],[-76.69368,39.28143],[-76.69291,39.28146],[-76.69314,39.28317],[-76.69376,39.28464],[-76.6938,39.2856],[-76.69404,39.28605],[-76.69531,39.28729],[-76.69571,39.28843],[-76.69624,39.28882],[-76.69686,39.28894],[-76.69711,39.28915],[-76.69718,39.29099],[-76.69795,39.29294],[-76.69399,39.2933],[-76.66975,39.2942],[-76.66959,39.29351],[-76.66749,39.29221],[-76.6635,39.28752],[-76.66171,39.28731],[-76.66046,39.28696],[-76.65938,39.28613],[-76.65918,39.28552],[-76.65961,39.28468],[-76.65995,39.28255],[-76.65903,39.28139],[-76.66015,39.28067],[-76.65769,39.27621],[-76.65726,39.276],[-76.6576,39.27567]]]},"properties":{"csa":"Allendale/Irvington/S. Hilton","pop":14828,"parcels":6337,"violent_crime_rate":17.601834367413,"bnia_vacant_pct":5.286956522}},{"type":"Feature","geometry":{"type":"Polygon","coordinates":[[[-76.69409,39.30151],[-76.69459,39.30081],[-76.69237,39.29909],[-76.69344,39.29795],[-76.69156,39.29672],[-76.69227,39.29608],[-76.69179,39.29574],[-76.69165,39.29527],[-76.69099,39.2947],[-76.69045,39.29474],[-76.68946,39.29418],[-76.6894,39.29359],[-76.68941,39.29346],[-76.69566,39.29323],[-76.69795,39.29294],[-76.69718,39.29099],[-76.69711,39.28915],[-76.69686,39.28894],[-76.69624,39.28882],[-76.69571,39.28843],[-76.69531,39.28729],[-76.69404,39.28605],[-76.6938,39.2856],[-76.69376,39.28464],[-76.69314,39.28317],[-76.69291,39.28146],[-76.69368,39.28143],[-76.69456,39.28003],[-76.69472,39.27928],[-76.69572,39.27794],[-76.69576,39.27764],[-76.69514,39.27632],[-76.69375,39.2747],[-76.69269,39.27183],[-76.69279,39.27181],[-76.69959,39.2728],[-76.71116,39.27785],[-76.7112,39.30289],[-76.70993,39.30262],[-76.70955,39.30276],[-76.709,39.30329],[-76.70794,39.30331],[-76.70653,39.30295],[-76.70571,39.30256],[-76.70543,39.30225],[-76.7055,39.30194],[-76.7067,39.30081],[-76.70648,39.29998],[-76.70622,39.29965],[-76.70565,39.29937],[-76.70485,39.29969],[-76.70405,39.29957],[-76.70311,39.29968],[-76.70279,39.30006],[-76.70296,39.30043],[-76.70287,39.30061],[-76.70125,39.30121],[-76.70063,39.30193],[-76.69933,39.30207],[-76.69872,39.30188],[-76.6985,39.30146],[-76.69765,39.30136],[-76.6965,39.30205],[-76.69479,39.30201],[-76.69409,39.30151]]]},"properties":{"csa":"Beechfield/Ten Hills/West Hills","pop":12083,"parcels":3775,"violent_crime_rate":10.09683025738641,"bnia_vacant_pct":0.498614958}},{"type":"Feature","geometry":{"type":"Polygon","coordinates":[[[-76.56567,39.32518],[-76.56285,39.32475],[-76.56075,39.32248],[-76.56084,39.32173],[-76.5603,39.32094],[-76.55994,39.32091],[-76.55797,39.3214],[-76.55732,39.32128],[-76.55616,39.32013],[-76.55568,39.31912],[-76.55591,39.31889],[-76.55564,39.31886],[-76.55557,39.31823],[-76.55511,39.31789],[-76.5593,39.31528],[-76.56266,39.31387],[-76.56399,39.31362],[-76.56997,39.31339],[-76.57064,39.3135],[-76.57208,39.31444],[-76.57258,39.31458],[-76.57349,39.3143],[-76.58214,39.31425],[-76.58172,39.31462],[-76.58449,39.31491],[-76.59163,39.31628],[-76.59494,39.31713],[-76.59015,39.3218],[-76.58737,39.32368],[-76.58372,39.32803],[-76.58085,39.33052],[-76.57874,39.33194],[-76.57669,39.33373],[-76.57532,39.33361],[-76.57508,39.33342],[-76.57503,39.33315],[-76.57528,39.33294],[-76.57532,39.33217],[-76.57466,39.33157],[-76.57332,39.33088],[-76.57014,39.32968],[-76.5696,39.32861],[-76.56974,39.32828],[-76.57083,39.32741],[-76.57067,39.32684],[-76.57033,39.3266],[-76.56995,39.32656],[-76.56818,39.32736],[-76.56785,39.32657],[-76.56567,39.32518]]]},"properties":{"csa":"Belair-Edison","pop":15085,"parcels":6608,"violent_crime_rate":15.909844216108716,"bnia_vacant_pct":2.622377622}},{"type":"Feature","geometry":{"type":"MultiPolygon","coordinates":[[[[-76.58824,39.21295],[-76.58806,39.21343],[-76.58755,39.21376],[-76.58741,39.21361],[-76.58501,39.21372],[-76.58301,39.21436],[-76.58093,39.21426],[-76.58047,39.21342],[-76.58065,39.21266],[-76.58104,39.21221],[-76.58005,39.21176],[-76.58015,39.21155],[-76.58126,39.21178],[-76.58179,39.21109],[-76.58154,39.21081],[-76.58218,39.20992],[-76.58284,39.20982],[-76.58147,39.20935],[-76.58162,39.20907],[-76.58204,39.20912],[-76.58206,39.20897],[-76.58113,39.20851],[-76.58133,39.20827],[-76.58362,39.20839],[-76.58366,39.20812],[-76.58867,39.21283],[-76.58824,39.21295]]],[[[-76.56818,39.21593],[-76.56756,39.21512],[-76.56708,39.2149],[-76.56545,39.2148],[-76.56312,39.21523],[-76.56304,39.21513],[-76.56338,39.2149],[-76.56268,39.21445],[-76.56159,39.21466],[-76.56056,39.21503],[-76.5604,39.21526],[-76.55994,39.21517],[-76.55982,39.21556],[-76.56017,39.21573],[-76.55997,39.21579],[-76.55927,39.21589],[-76.55957,39.21567],[-76.55933,39.21525],[-76.55869,39.21514],[-76.55817,39.21545],[-76.55817,39.21604],[-76.55792,39.21528],[-76.55696,39.21536],[-76.55645,39.2155],[-76.55612,39.2158],[-76.55545,39.2169],[-76.55335,39.21724],[-76.55301,39.21711],[-76.55086,39.21767],[-76.55039,39.21758],[-76.54944,39.21702],[-76.54921,39.21632],[-76.54899,39.21395],[-76.54837,39.21357],[-76.5485,39.2134],[-76.5493,39.21355],[-76.54966,39.21335],[-76.55037,39.21222],[-76.54978,39.21124],[-76.54871,39.21053],[-76.54752,39.21021],[-76.54676,39.21042],[-76.54642,39.21015],[-76.54575,39.21012],[-76.53966,39.21378],[-76.53944,39.2136],[-76.54125,39.21246],[-76.5411,39.21183],[-76.54169,39.21175],[-76.54179,39.21082],[-76.54135,39.21066],[-76.54092,39.21001],[-76.54018,39.21009],[-76.53937,39.21048],[-76.53817,39.21063],[-76.53962,39.2099],[-76.53769,39.21055],[-76.53592,39.21151],[-76.5338,39.21308],[-76.53341,39.21289],[-76.53335,39.2127],[-76.53384,39.21213],[-76.53278,39.21111],[-76.53272,39.21082],[-76.53307,39.21054],[-76.53483,39.21062],[-76.53519,39.21047],[-76.53272,39.21022],[-76.53219,39.21004],[-76.53209,39.20959],[-76.53292,39.20854],[-76.53306,39.20796],[-76.53288,39.20775],[-76.54973,39.19724],[-76.5791,39.20666],[-76.5794,39.20703],[-76.57927,39.20745],[-76.57778,39.20735],[-76.57866,39.20758],[-76.5788,39.20792],[-76.57868,39.20821],[-76.57836,39.2084],[-76.57654,39.20801],[-76.57584,39.20814],[-76.57548,39.2079],[-76.57455,39.20794],[-76.57287,39.20895],[-76.57133,39.21053],[-76.5712,39.21102],[-76.57241,39.21261],[-76.57248,39.21333],[-76.57399,39.21358],[-76.57392,39.21372],[-76.57246,39.21352],[-76.57241,39.21389],[-76.57282,39.21421],[-76.57231,39.21442],[-76.5719,39.21565],[-76.57185,39.21678],[-76.57211,39.21729],[-76.57248,39.21761],[-76.57323,39.21792],[-76.57339,39.21822],[-76.57324,39.21852],[-76.57305,39.21862],[-76.57213,39.21835],[-76.56818,39.21593]]],[[[-76.61161,39.2344],[-76.61783,39.23712],[-76.61663,39.23831],[-76.61549,39.23913],[-76.61518,39.23973],[-76.61439,39.24036],[-76.61352,39.24171],[-76.61262,39.24178],[-76.61175,39.24411],[-76.61151,39.24632],[-76.61123,39.24645],[-76.61128,39.24629],[-76.61107,39.24628],[-76.61115,39.2466],[-76.61057,39.24696],[-76.61062,39.24708],[-76.61028,39.24677],[-76.60966,39.24654],[-76.60899,39.24678],[-76.6086,39.24659],[-76.60861,39.24641],[-76.60881,39.2463],[-76.60878,39.24583],[-76.60834,39.24536],[-76.60829,39.24491],[-76.60764,39.24348],[-76.6074,39.24343],[-76.60684,39.24412],[-76.60602,39.24436],[-76.60544,39.24421],[-76.60472,39.24339],[-76.60445,39.24356],[-76.60453,39.24382],[-76.6036,39.24395],[-76.60191,39.24373],[-76.60101,39.24387],[-76.60083,39.24435],[-76.60108,39.24452],[-76.60118,39.24485],[-76.60051,39.24575],[-76.60019,39.24649],[-76.59976,39.24669],[-76.59874,39.24808],[-76.59798,39.24843],[-76.59756,39.24807],[-76.59791,39.24799],[-76.59817,39.24745],[-76.59823,39.24682],[-76.59794,39.24655],[-76.59745,39.2467],[-76.59714,39.24653],[-76.5984,39.24529],[-76.59827,39.24491],[-76.59736,39.24469],[-76.59635,39.24476],[-76.59595,39.24433],[-76.59575,39.24433],[-76.59512,39.24446],[-76.59501,39.24488],[-76.59445,39.24545],[-76.59471,39.24492],[-76.59438,39.24534],[-76.59405,39.24532],[-76.59394,39.24513],[-76.59433,39.2451],[-76.59465,39.24474],[-76.59467,39.24398],[-76.59486,39.24365],[-76.59481,39.24354],[-76.59466,39.24379],[-76.59469,39.24342],[-76.59427,39.24494],[-76.59295,39.24547],[-76.59267,39.24518],[-76.59225,39.24513],[-76.59215,39.24441],[-76.59166,39.24374],[-76.59152,39.24373],[-76.59133,39.24393],[-76.59148,39.24442],[-76.59095,39.2455],[-76.59121,39.24619],[-76.59165,39.24633],[-76.59191,39.24677],[-76.59184,39.24704],[-76.59122,39.24768],[-76.59208,39.24827],[-76.59238,39.24882],[-76.59249,39.2496],[-76.59207,39.25004],[-76.59215,39.25012],[-76.59191,39.25009],[-76.59179,39.25034],[-76.59114,39.25032],[-76.59043,39.25058],[-76.58994,39.25037],[-76.58914,39.25032],[-76.58671,39.25068],[-76.58669,39.25091],[-76.58691,39.25112],[-76.58661,39.25099],[-76.58613,39.25038],[-76.58606,39.24943],[-76.58631,39.24882],[-76.58648,39.2474],[-76.58631,39.24722],[-76.5865,39.24653],[-76.58615,39.24622],[-76.58511,39.24579],[-76.58488,39.24648],[-76.58502,39.24743],[-76.58491,39.24828],[-76.5848,39.24827],[-76.58492,39.24903],[-76.58475,39.24944],[-76.58477,39.24995],[-76.58498,39.25002],[-76.58498,39.25053],[-76.58444,39.25051],[-76.58437,39.25035],[-76.58425,39.25134],[-76.58403,39.25156],[-76.58378,39.25132],[-76.58388,39.24998],[-76.58421,39.24973],[-76.58416,39.2495],[-76.58389,39.24945],[-76.58384,39.2498],[-76.58371,39.24941],[-76.58359,39.24962],[-76.58341,39.24963],[-76.58357,39.24938],[-76.58318,39.24906],[-76.58328,39.24891],[-76.58318,39.24844],[-76.58301,39.24838],[-76.58277,39.24838],[-76.58274,39.24968],[-76.58243,39.24974],[-76.58123,39.24907],[-76.58028,39.24928],[-76.57994,39.24972],[-76.57932,39.24958],[-76.57775,39.25152],[-76.57759,39.25143],[-76.57827,39.25058],[-76.57812,39.25048],[-76.57891,39.2495],[-76.57881,39.24943],[-76.58071,39.24705],[-76.58027,39.24687],[-76.57736,39.24998],[-76.57719,39.2499],[-76.57814,39.24874],[-76.57716,39.24827],[-76.5762,39.24945],[-76.57592,39.24932],[-76.57678,39.24808],[-76.57621,39.24813],[-76.57466,39.24731],[-76.57485,39.24709],[-76.57421,39.24689],[-76.57341,39.24712],[-76.57342,39.24647],[-76.57283,39.2462],[-76.57291,39.24607],[-76.57198,39.24551],[-76.57139,39.24535],[-76.57018,39.24428],[-76.57029,39.24417],[-76.56962,39.24378],[-76.56949,39.24365],[-76.57072,39.24345],[-76.57067,39.24325],[-76.5713,39.24318],[-76.5713,39.24301],[-76.57078,39.2431],[-76.57069,39.24266],[-76.57054,39.2426],[-76.56913,39.24294],[-76.56852,39.24156],[-76.56928,39.24114],[-76.569,39.24083],[-76.56656,39.24219],[-76.56719,39.24282],[-76.56694,39.24298],[-76.5656,39.24162],[-76.56684,39.24086],[-76.56684,39.24067],[-76.56726,39.2403],[-76.56723,39.24012],[-76.56527,39.24117],[-76.56505,39.24108],[-76.56409,39.24023],[-76.56518,39.23944],[-76.56489,39.2392],[-76.56419,39.23921],[-76.56369,39.23895],[-76.56346,39.23825],[-76.56283,39.23746],[-76.56318,39.23728],[-76.56157,39.23515],[-76.55957,39.23553],[-76.55827,39.23417],[-76.55801,39.23343],[-76.5584,39.23215],[-76.55981,39.23192],[-76.55953,39.23119],[-76.5596,39.23105],[-76.56206,39.23053],[-76.56236,39.23034],[-76.56245,39.22989],[-76.56172,39.22759],[-76.56366,39.22509],[-76.56368,39.22462],[-76.56389,39.22452],[-76.56539,39.2251],[-76.56598,39.22546],[-76.56672,39.22622],[-76.56729,39.22634],[-76.56737,39.22655],[-76.56801,39.22659],[-76.56818,39.22693],[-76.56918,39.22726],[-76.57042,39.22742],[-76.57209,39.22714],[-76.5762,39.22551],[-76.57648,39.22558],[-76.57864,39.22682],[-76.57877,39.22719],[-76.57843,39.2277],[-76.5786,39.22807],[-76.57852,39.22837],[-76.57888,39.22918],[-76.57876,39.22975],[-76.57917,39.23016],[-76.57951,39.23087],[-76.57989,39.23124],[-76.58043,39.23131],[-76.58133,39.23188],[-76.58175,39.23205],[-76.58065,39.23133],[-76.58073,39.23111],[-76.58108,39.23107],[-76.58131,39.23127],[-76.58112,39.23143],[-76.5812,39.23151],[-76.58136,39.23136],[-76.58169,39.23148],[-76.58146,39.23094],[-76.58066,39.23076],[-76.58027,39.23022],[-76.58005,39.23035],[-76.58016,39.23012],[-76.57999,39.23029],[-76.57975,39.23024],[-76.57997,39.22996],[-76.57976,39.22984],[-76.57978,39.22968],[-76.58062,39.22976],[-76.58037,39.22941],[-76.58095,39.22946],[-76.58094,39.22922],[-76.58003,39.22906],[-76.58047,39.22888],[-76.58023,39.22868],[-76.58,39.22878],[-76.57994,39.22842],[-76.58024,39.2284],[-76.58009,39.22795],[-76.58022,39.22746],[-76.58102,39.2273],[-76.58126,39.22688],[-76.58126,39.22672],[-76.57964,39.2254],[-76.57981,39.22526],[-76.57959,39.22395],[-76.57974,39.22354],[-76.5796,39.22342],[-76.57647,39.22337],[-76.57645,39.22302],[-76.57958,39.22308],[-76.57968,39.22295],[-76.57969,39.22258],[-76.57907,39.22245],[-76.57908,39.22189],[-76.57962,39.22179],[-76.57911,39.22169],[-76.57911,39.22138],[-76.57729,39.22132],[-76.57761,39.22105],[-76.57804,39.22105],[-76.57804,39.22085],[-76.5785,39.22085],[-76.57862,39.22106],[-76.57876,39.2208],[-76.57839,39.2207],[-76.57838,39.21965],[-76.57802,39.21964],[-76.578,39.21932],[-76.57838,39.21938],[-76.57837,39.21927],[-76.5779,39.21928],[-76.57788,39.21914],[-76.57836,39.21912],[-76.57839,39.21864],[-76.57869,39.21866],[-76.57876,39.21893],[-76.57945,39.21891],[-76.57916,39.21779],[-76.57822,39.2161],[-76.57825,39.21572],[-76.57886,39.21581],[-76.57945,39.21619],[-76.58015,39.21597],[-76.58049,39.21646],[-76.58099,39.2166],[-76.58246,39.21591],[-76.58127,39.21597],[-76.58126,39.21583],[-76.58399,39.2158],[-76.58458,39.21525],[-76.58458,39.21506],[-76.58564,39.21504],[-76.58571,39.21516],[-76.58661,39.21498],[-76.58689,39.21467],[-76.58679,39.21408],[-76.587,39.21407],[-76.5871,39.21427],[-76.58782,39.21405],[-76.589,39.21314],[-76.61161,39.2344]]]]},"properties":{"csa":"Brooklyn/Curtis Bay/Hawkins Point","pop":13479,"parcels":5320,"violent_crime_rate":26.040507456042732,"bnia_vacant_pct":7.67610578}},{"type":"Feature","geometry":{"type":"Polygon","coordinates":[[[-76.57088,39.27649],[-76.5753,39.27719],[-76.57559,39.27666],[-76.57662,39.27687],[-76.57655,39.27709],[-76.57809,39.27756],[-76.57831,39.27738],[-76.57853,39.27753],[-76.5789,39.2772],[-76.57908,39.27694],[-76.57892,39.27682],[-76.5793,39.27645],[-76.57957,39.27664],[-76.57865,39.27757],[-76.57999,39.27784],[-76.57977,39.27847],[-76.58007,39.27879],[-76.57999,39.27916],[-76.57939,39.27907],[-76.57931,39.27964],[-76.57985,39.27978],[-76.57975,39.28001],[-76.58001,39.28018],[-76.58031,39.27987],[-76.5817,39.28073],[-76.58204,39.28074],[-76.58255,39.28132],[-76.58311,39.28167],[-76.58326,39.2817],[-76.58378,39.2812],[-76.58392,39.28127],[-76.58347,39.28189],[-76.58505,39.28284],[-76.58548,39.2824],[-76.58566,39.28252],[-76.58521,39.28293],[-76.58532,39.28301],[-76.58565,39.28277],[-76.58545,39.28333],[-76.58587,39.28322],[-76.58684,39.28332],[-76.58669,39.28381],[-76.58693,39.2838],[-76.58707,39.28586],[-76.58433,39.28597],[-76.58471,39.2919],[-76.57619,39.29223],[-76.57582,39.28632],[-76.57722,39.28624],[-76.5771,39.2842],[-76.5714,39.28441],[-76.57088,39.27649]]]},"properties":{"csa":"Canton","pop":8239,"parcels":4036,"violent_crime_rate":12.622891127564024,"bnia_vacant_pct":0.346878097}},{"type":"Feature","geometry":{"type":"Polygon","coordinates":[[[-76.53321,39.33051],[-76.53429,39.32881],[-76.53857,39.32357],[-76.54007,39.32151],[-76.54619,39.31742],[-76.54917,39.3157],[-76.54911,39.31604],[-76.54941,39.31642],[-76.55227,39.31677],[-76.55503,39.31782],[-76.55554,39.31818],[-76.55564,39.31886],[-76.55591,39.31889],[-76.55568,39.31912],[-76.55616,39.32013],[-76.55732,39.32128],[-76.55797,39.3214],[-76.55994,39.32091],[-76.5603,39.32094],[-76.56084,39.32173],[-76.56075,39.32248],[-76.56285,39.32475],[-76.56567,39.32518],[-76.56761,39.32636],[-76.56079,39.33176],[-76.54124,39.34541],[-76.5297,39.35562],[-76.52972,39.33113],[-76.53321,39.33051]]]},"properties":{"csa":"Cedonia/Frankford","pop":22455,"parcels":6678,"violent_crime_rate":14.651525272767758,"bnia_vacant_pct":0.90548054}},{"type":"Feature","geometry":{"type":"Polygon","coordinates":[[[-76.62189,39.24151],[-76.62709,39.24241],[-76.62809,39.24291],[-76.62989,39.24471],[-76.63209,39.24732],[-76.63399,39.25031],[-76.6347,39.25538],[-76.6336,39.25839],[-76.63294,39.25777],[-76.63222,39.25757],[-76.62971,39.25866],[-76.62931,39.25847],[-76.6287,39.2578],[-76.62765,39.25795],[-76.62733,39.25784],[-76.62713,39.25695],[-76.62672,39.2569],[-76.62574,39.25617],[-76.62562,39.25589],[-76.62503,39.25573],[-76.62449,39.25534],[-76.62377,39.25529],[-76.62278,39.25552],[-76.6218,39.2555],[-76.62068,39.25571],[-76.61963,39.25567],[-76.61721,39.25627],[-76.61535,39.25547],[-76.61524,39.25473],[-76.61501,39.25441],[-76.61454,39.25387],[-76.61398,39.25368],[-76.61272,39.25171],[-76.61199,39.25136],[-76.6114,39.25024],[-76.61151,39.24921],[-76.6117,39.24891],[-76.61131,39.24822],[-76.61277,39.24739],[-76.61312,39.24693],[-76.61447,39.24359],[-76.61476,39.24232],[-76.61495,39.24215],[-76.61504,39.24128],[-76.61525,39.24102],[-76.62189,39.24151]]]},"properties":{"csa":"Cherry Hill","pop":7496,"parcels":1079,"violent_crime_rate":18.409818569903948,"bnia_vacant_pct":5.882352941}},{"type":"Feature","geometry":{"type":"Polygon","coordinates":[[[-76.59712,39.35401],[-76.60989,39.3555],[-76.60996,39.36332],[-76.60977,39.37201],[-76.59746,39.37201],[-76.59714,39.3719],[-76.5972,39.37132],[-76.59745,39.37087],[-76.59812,39.37047],[-76.59842,39.3701],[-76.59912,39.36978],[-76.60002,39.36877],[-76.60023,39.36897],[-76.60009,39.36866],[-76.60028,39.36809],[-76.59983,39.36723],[-76.59946,39.36708],[-76.59971,39.36656],[-76.59913,39.3651],[-76.59868,39.36466],[-76.59858,39.36421],[-76.59823,39.36393],[-76.59785,39.36298],[-76.59808,39.36259],[-76.59832,39.36105],[-76.59811,39.36045],[-76.5982,39.36009],[-76.59794,39.35891],[-76.59754,39.35818],[-76.5958,39.35629],[-76.5957,39.35582],[-76.59521,39.35536],[-76.59482,39.35447],[-76.59491,39.35406],[-76.59712,39.35401]]]},"properties":{"csa":"Chinquapin Park/Belvedere","pop":7219,"parcels":2839,"violent_crime_rate":8.588447153345339,"bnia_vacant_pct":0.819366853}},{"type":"Feature","geometry":{"type":"Polygon","coordinates":[[[-76.53597,39.30601],[-76.53919,39.30449],[-76.55383,39.29992],[-76.55389,39.30012],[-76.55929,39.30421],[-76.55969,39.30431],[-76.56596,39.30894],[-76.56864,39.3094],[-76.57305,39.30933],[-76.57313,39.31433],[-76.57272,39.31458],[-76.57223,39.31452],[-76.57096,39.31366],[-76.57015,39.31339],[-76.56321,39.31372],[-76.5593,39.31528],[-76.55511,39.31789],[-76.55245,39.31682],[-76.54941,39.31642],[-76.54911,39.31604],[-76.54917,39.3157],[-76.54619,39.31742],[-76.54007,39.32151],[-76.53857,39.32357],[-76.53429,39.32881],[-76.53321,39.33051],[-76.52972,39.33113],[-76.52975,39.3102],[-76.53597,39.30601]]]},"properties":{"csa":"Claremont/Armistead","pop":9064,"parcels":2555,"violent_crime_rate":18.314210061782877,"bnia_vacant_pct":0.131694469}},{"type":"Feature","geometry":{"type":"Polygon","coordinates":[[[-76.58172,39.31462],[-76.58214,39.31425],[-76.57313,39.31433],[-76.57282,39.30251],[-76.58219,39.30251],[-76.58539,39.30232],[-76.58689,39.30251],[-76.58812,39.30318],[-76.58869,39.31242],[-76.59936,39.31194],[-76.59885,39.31332],[-76.59494,39.31713],[-76.59163,39.31628],[-76.58449,39.31491],[-76.58172,39.31462]]]},"properties":{"csa":"Clifton-Berea","pop":7577,"parcels":5442,"violent_crime_rate":23.228190576745416,"bnia_vacant_pct":19.96111471}},{"type":"Feature","geometry":{"type":"Polygon","coordinates":[[[-76.6741,39.36365],[-76.67563,39.36239],[-76.68812,39.35576],[-76.69777,39.36072],[-76.70685,39.36811],[-76.7113,39.37197],[-76.67817,39.37199],[-76.67799,39.37104],[-76.67715,39.36891],[-76.67554,39.36736],[-76.67413,39.36634],[-76.6731,39.36424],[-76.6741,39.36365]]]},"properties":{"csa":"Cross-Country/Cheswolde","pop":13213,"parcels":2944,"violent_crime_rate":4.162567168697495,"bnia_vacant_pct":0.207253886}},{"type":"Feature","geometry":{"type":"Polygon","coordinates":[[[-76.70393,39.31855],[-76.70322,39.31784],[-76.70294,39.31635],[-76.70244,39.31585],[-76.70145,39.3157],[-76.7006,39.31586],[-76.70037,39.31613],[-76.69996,39.31783],[-76.69915,39.3183],[-76.69838,39.31829],[-76.69774,39.31789],[-76.69619,39.31735],[-76.69602,39.31694],[-76.69621,39.31539],[-76.69589,39.3151],[-76.69286,39.31491],[-76.6911,39.31439],[-76.68994,39.31373],[-76.68942,39.3131],[-76.68906,39.31196],[-76.68922,39.31155],[-76.6901,39.31065],[-76.69013,39.30989],[-76.68744,39.30605],[-76.68705,39.30565],[-76.68616,39.30556],[-76.68654,39.30505],[-76.68709,39.30484],[-76.68744,39.30518],[-76.6879,39.30516],[-76.68903,39.30455],[-76.68895,39.30469],[-76.68927,39.30493],[-76.68973,39.30506],[-76.69033,39.30504],[-76.69139,39.30453],[-76.69424,39.3049],[-76.69491,39.30404],[-76.69428,39.30291],[-76.69426,39.30245],[-76.69489,39.30193],[-76.69566,39.3021],[-76.6965,39.30205],[-76.69765,39.30136],[-76.6985,39.30146],[-76.69872,39.30188],[-76.69933,39.30207],[-76.70063,39.30193],[-76.70125,39.30121],[-76.70287,39.30061],[-76.70296,39.30043],[-76.70279,39.30006],[-76.70311,39.29968],[-76.70405,39.29957],[-76.70485,39.29969],[-76.70558,39.29937],[-76.70623,39.29966],[-76.70669,39.30058],[-76.70661,39.30103],[-76.70548,39.30196],[-76.70543,39.30225],[-76.70571,39.30256],[-76.70653,39.30295],[-76.70794,39.30331],[-76.709,39.30329],[-76.70955,39.30276],[-76.70993,39.30262],[-76.7112,39.30289],[-76.71122,39.3209],[-76.7084,39.32181],[-76.70452,39.32203],[-76.70177,39.3196],[-76.70393,39.31855]]]},"properties":{"csa":"Dickeyville/Franklintown","pop":3672,"parcels":529,"violent_crime_rate":11.982570806100217,"bnia_vacant_pct":1.242236025}},{"type":"Feature","geometry":{"type":"Polygon","coordinates":[[[-76.67088,39.33564],[-76.66892,39.33498],[-76.6657,39.33302],[-76.66419,39.32732],[-76.66468,39.3222],[-76.68106,39.32695],[-76.68197,39.32509],[-76.68214,39.32514],[-76.68256,39.32584],[-76.68992,39.32363],[-76.68742,39.32884],[-76.68859,39.32918],[-76.68864,39.33044],[-76.69086,39.33101],[-76.68936,39.33398],[-76.68936,39.34076],[-76.68348,39.34077],[-76.68297,39.34133],[-76.67939,39.34021],[-76.67792,39.34002],[-76.67088,39.33564]]]},"properties":{"csa":"Dorchester/Ashburton","pop":10441,"parcels":3796,"violent_crime_rate":15.994636529068098,"bnia_vacant_pct":2.658486708}},{"type":"Feature","geometry":{"type":"Polygon","coordinates":[[[-76.61979,39.29495],[-76.6143,39.29511],[-76.61325,39.29453],[-76.61064,39.2946],[-76.61004,39.2934],[-76.60705,39.29141],[-76.60581,39.28996],[-76.60608,39.28992],[-76.60494,39.28687],[-76.62754,39.28605],[-76.62792,39.28671],[-76.62807,39.28766],[-76.62746,39.29038],[-76.62773,39.29373],[-76.62761,39.29496],[-76.6273,39.29559],[-76.62374,39.29862],[-76.62253,39.29985],[-76.62049,39.30144],[-76.62031,39.30176],[-76.61979,39.29495]]]},"properties":{"csa":"Downtown/Seton Hill","pop":9448,"parcels":2206,"violent_crime_rate":62.235393734123626,"bnia_vacant_pct":9.985734665}},{"type":"Feature","geometry":{"type":"Polygon","coordinates":[[[-76.67383,39.30185],[-76.67347,39.30123],[-76.67371,39.30076],[-76.67299,39.29787],[-76.67123,39.29634],[-76.67058,39.29636],[-76.67049,39.29441],[-76.67031,39.29419],[-76.68941,39.29346],[-76.68946,39.29418],[-76.69045,39.29474],[-76.69099,39.2947],[-76.69165,39.29527],[-76.69179,39.29574],[-76.69227,39.29608],[-76.69156,39.29672],[-76.69344,39.29795],[-76.69237,39.29909],[-76.69459,39.30081],[-76.69409,39.30151],[-76.69479,39.30201],[-76.69432,39.30234],[-76.69425,39.30277],[-76.69491,39.30404],[-76.69463,39.30431],[-76.6945,39.30473],[-76.69419,39.30492],[-76.69139,39.30453],[-76.69033,39.30504],[-76.68973,39.30506],[-76.68927,39.30493],[-76.68895,39.30469],[-76.68903,39.30455],[-76.68785,39.30517],[-76.68744,39.30518],[-76.6871,39.30484],[-76.68677,39.30489],[-76.68628,39.3055],[-76.68538,39.30592],[-76.6832,39.30618],[-76.68144,39.30661],[-76.67986,39.30592],[-76.6786,39.30472],[-76.67548,39.30357],[-76.67454,39.30269],[-76.67383,39.30185]]]},"properties":{"csa":"Edmondson Village","pop":7093,"parcels":3125,"violent_crime_rate":12.1246299168194,"bnia_vacant_pct":3.213276836}},{"type":"Feature","geometry":{"type":"Polygon","coordinates":[[[-76.58669,39.28381],[-76.58684,39.28332],[-76.58777,39.28337],[-76.58772,39.28286],[-76.58807,39.28283],[-76.58804,39.28253],[-76.58747,39.28253],[-76.58746,39.28221],[-76.58947,39.28199],[-76.58946,39.28188],[-76.58816,39.28206],[-76.58814,39.28189],[-76.58836,39.28177],[-76.58943,39.28179],[-76.58945,39.28167],[-76.58893,39.28157],[-76.58842,39.2816],[-76.58827,39.28147],[-76.58721,39.28158],[-76.587,39.28039],[-76.58709,39.28025],[-76.58759,39.28022],[-76.58688,39.27951],[-76.58736,39.2793],[-76.58842,39.2801],[-76.58843,39.27996],[-76.58914,39.27953],[-76.5902,39.28043],[-76.59058,39.2802],[-76.59077,39.28037],[-76.59027,39.28055],[-76.59096,39.2812],[-76.59093,39.28149],[-76.59111,39.28173],[-76.59156,39.28173],[-76.59148,39.28044],[-76.59208,39.2804],[-76.59212,39.28181],[-76.59163,39.28183],[-76.59215,39.28192],[-76.59219,39.2818],[-76.59279,39.28176],[-76.59268,39.28042],[-76.59289,39.28041],[-76.59293,39.28106],[-76.59383,39.28067],[-76.59357,39.28033],[-76.59398,39.28013],[-76.5943,39.28044],[-76.59442,39.28039],[-76.59401,39.27992],[-76.59411,39.27983],[-76.59463,39.2802],[-76.5949,39.27997],[-76.5951,39.27999],[-76.59419,39.27919],[-76.59509,39.27976],[-76.59551,39.27951],[-76.59534,39.27941],[-76.59556,39.27927],[-76.59594,39.27906],[-76.59611,39.27912],[-76.59624,39.27863],[-76.59629,39.27928],[-76.59646,39.27927],[-76.59657,39.27904],[-76.59892,39.27917],[-76.59947,39.27896],[-76.60048,39.27957],[-76.60055,39.2802],[-76.6001,39.28165],[-76.59853,39.28166],[-76.59866,39.28219],[-76.59654,39.28222],[-76.59654,39.28241],[-76.59892,39.28237],[-76.59918,39.28532],[-76.59342,39.28558],[-76.59375,39.29154],[-76.58471,39.2919],[-76.58433,39.28597],[-76.58707,39.28586],[-76.58693,39.28381],[-76.58669,39.28381]]]},"properties":{"csa":"Fells Point","pop":10638,"parcels":4044,"violent_crime_rate":15.51043429216018,"bnia_vacant_pct":0.767018217}},{"type":"Feature","geometry":{"type":"Polygon","coordinates":[[[-76.67288,39.32133],[-76.67451,39.32182],[-76.67485,39.32116],[-76.67425,39.31104],[-76.68056,39.31077],[-76.68005,39.31003],[-76.67973,39.30913],[-76.67968,39.30827],[-76.67986,39.30739],[-76.67912,39.30682],[-76.67861,39.30663],[-76.6768,39.30678],[-76.6755,39.30589],[-76.67409,39.30629],[-76.67412,39.30573],[-76.67351,39.30351],[-76.67366,39.30298],[-76.67425,39.3022],[-76.67454,39.30269],[-76.67548,39.30357],[-76.6786,39.30472],[-76.67986,39.30592],[-76.68131,39.30659],[-76.68189,39.3066],[-76.6832,39.30618],[-76.68519,39.30596],[-76.68616,39.30556],[-76.68705,39.30565],[-76.68802,39.30679],[-76.68878,39.30812],[-76.69013,39.30989],[-76.6901,39.31065],[-76.68922,39.31155],[-76.68906,39.31196],[-76.68942,39.3131],[-76.69004,39.31382],[-76.6911,39.31439],[-76.69286,39.31491],[-76.69589,39.3151],[-76.69621,39.31539],[-76.69602,39.31694],[-76.69619,39.31735],[-76.69844,39.3183],[-76.69915,39.3183],[-76.69996,39.31783],[-76.70037,39.31613],[-76.7006,39.31586],[-76.70212,39.3157],[-76.7029,39.31627],[-76.70319,39.31779],[-76.70393,39.31855],[-76.70075,39.32002],[-76.69505,39.32205],[-76.68256,39.32584],[-76.68214,39.32514],[-76.68197,39.32509],[-76.68106,39.32695],[-76.67147,39.32419],[-76.67288,39.32133]]]},"properties":{"csa":"Forest Park/Walbrook","pop":9426,"parcels":3126,"violent_crime_rate":19.41438574156588,"bnia_vacant_pct":4.852686308}},{"type":"Feature","geometry":{"type":"Polygon","coordinates":[[[-76.67134,39.3622],[-76.67175,39.36064],[-76.67078,39.35647],[-76.67212,39.35666],[-76.67227,39.35684],[-76.67935,39.35388],[-76.68781,39.34928],[-76.69011,39.3476],[-76.68231,39.34213],[-76.68081,39.34168],[-76.67834,39.34225],[-76.67671,39.34184],[-76.67792,39.34002],[-76.67939,39.34021],[-76.68509,39.34191],[-76.6889,39.34351],[-76.6927,39.34551],[-76.69979,39.34981],[-76.7037,39.35151],[-76.7056,39.35271],[-76.70671,39.35282],[-76.71126,39.34957],[-76.71129,39.3673],[-76.71141,39.36743],[-76.71129,39.36759],[-76.7113,39.37192],[-76.69777,39.36072],[-76.68812,39.35576],[-76.67563,39.36239],[-76.6741,39.36365],[-76.6731,39.36424],[-76.67134,39.3622]]]},"properties":{"csa":"Glen-Fallstaff","pop":14497,"parcels":4150,"violent_crime_rate":17.865765330758087,"bnia_vacant_pct":0.975609756}},{"type":"Feature","geometry":{"type":"Polygon","coordinates":[[[-76.60946,39.31141],[-76.61931,39.31109],[-76.62012,39.32426],[-76.62029,39.32461],[-76.61998,39.32477],[-76.62052,39.32467],[-76.62198,39.32532],[-76.62307,39.32641],[-76.6236,39.32642],[-76.62501,39.32575],[-76.6254,39.32626],[-76.62505,39.32659],[-76.62516,39.32689],[-76.62496,39.3283],[-76.62598,39.33099],[-76.6257,39.33145],[-76.62452,39.3318],[-76.62379,39.33311],[-76.62318,39.33361],[-76.62315,39.3338],[-76.62397,39.33477],[-76.62383,39.33647],[-76.61629,39.33146],[-76.61507,39.33256],[-76.61397,39.33268],[-76.61299,39.33196],[-76.61201,39.33149],[-76.61056,39.33104],[-76.60945,39.33094],[-76.60946,39.31141]]]},"properties":{"csa":"Greater Charles Village/Barclay","pop":16944,"parcels":4729,"violent_crime_rate":17.52832861189802,"bnia_vacant_pct":3.173333333}},{"type":"Feature","geometry":{"type":"Polygon","coordinates":[[[-76.59985,39.34423],[-76.6002,39.34008],[-76.60014,39.33936],[-76.59985,39.33858],[-76.59912,39.33755],[-76.59613,39.33498],[-76.5955,39.33416],[-76.59577,39.33399],[-76.60449,39.334],[-76.60464,39.3343],[-76.60753,39.33406],[-76.60752,39.33447],[-76.60949,39.33445],[-76.60952,39.34537],[-76.60989,39.3555],[-76.59825,39.35416],[-76.59985,39.34423]]]},"properties":{"csa":"Greater Govans","pop":9593,"parcels":4173,"violent_crime_rate":14.177004065464402,"bnia_vacant_pct":2.977467811}},{"type":"Feature","geometry":{"type":"Polygon","coordinates":[[[-76.65207,39.31806],[-76.64251,39.31007],[-76.65998,39.30939],[-76.65979,39.31181],[-76.65988,39.31517],[-76.66175,39.31472],[-76.66144,39.31336],[-76.66132,39.31146],[-76.67425,39.31104],[-76.67485,39.32116],[-76.67451,39.32182],[-76.67288,39.32133],[-76.67147,39.32419],[-76.66468,39.3222],[-76.66419,39.32732],[-76.65999,39.32612],[-76.65792,39.32563],[-76.65785,39.32575],[-76.65207,39.31806]]]},"properties":{"csa":"Greater Mondawmin","pop":8638,"parcels":3833,"violent_crime_rate":30.215327622134755,"bnia_vacant_pct":12.70119988}},{"type":"Feature","geometry":{"type":"Polygon","coordinates":[[[-76.6255,39.33751],[-76.62556,39.33736],[-76.6259,39.33755],[-76.62801,39.3393],[-76.62882,39.33945],[-76.63115,39.3393],[-76.63192,39.33953],[-76.6328,39.34049],[-76.63471,39.34187],[-76.63512,39.34262],[-76.63543,39.34391],[-76.63776,39.34302],[-76.63902,39.34289],[-76.64022,39.34322],[-76.64028,39.34339],[-76.6423,39.34475],[-76.64327,39.34519],[-76.64472,39.34541],[-76.64702,39.34525],[-76.64623,39.34951],[-76.64625,39.35019],[-76.64793,39.35421],[-76.64931,39.35573],[-76.64969,39.35637],[-76.65028,39.36015],[-76.65026,39.3605],[-76.64871,39.36087],[-76.64859,39.36103],[-76.64623,39.36143],[-76.64762,39.36548],[-76.6478,39.36656],[-76.64819,39.36721],[-76.64846,39.36837],[-76.64977,39.372],[-76.63392,39.37201],[-76.63348,39.3709],[-76.6338,39.36971],[-76.63419,39.36934],[-76.63281,39.36878],[-76.63155,39.36872],[-76.63167,39.3655],[-76.62898,39.36523],[-76.62851,39.36539],[-76.62795,39.36586],[-76.62846,39.36467],[-76.62829,39.36409],[-76.62906,39.36348],[-76.62961,39.3627],[-76.63009,39.36111],[-76.62964,39.3606],[-76.62957,39.36029],[-76.62984,39.36017],[-76.63013,39.35975],[-76.63038,39.35872],[-76.62995,39.35747],[-76.63013,39.3568],[-76.63,39.35665],[-76.63019,39.3564],[-76.62969,39.35517],[-76.62971,39.3538],[-76.62898,39.35214],[-76.62896,39.35126],[-76.62878,39.35082],[-76.62844,39.35053],[-76.62861,39.35037],[-76.6281,39.34873],[-76.62781,39.34838],[-76.62783,39.34805],[-76.62743,39.34762],[-76.62746,39.34728],[-76.62693,39.34694],[-76.62693,39.3463],[-76.62655,39.34531],[-76.6257,39.34404],[-76.62568,39.34287],[-76.62593,39.34223],[-76.62574,39.34103],[-76.62575,39.33925],[-76.62406,39.33745],[-76.62378,39.33693],[-76.62383,39.33647],[-76.6255,39.33751]]]},"properties":{"csa":"Greater Roland Park/Poplar Hill","pop":7283,"parcels":3212,"violent_crime_rate":2.196896883152547,"bnia_vacant_pct":0.0330033}},{"type":"Feature","geometry":{"type":"Polygon","coordinates":[[[-76.65099,39.30341],[-76.64891,39.30302],[-76.65079,39.30081],[-76.65129,39.29981],[-76.65149,39.29881],[-76.65152,39.29861],[-76.65065,39.29864],[-76.65038,39.29371],[-76.66319,39.2932],[-76.66406,39.29341],[-76.66537,39.29436],[-76.67031,39.29419],[-76.67049,39.29441],[-76.67058,39.29636],[-76.67123,39.29634],[-76.673,39.29789],[-76.67371,39.30076],[-76.67347,39.30123],[-76.67383,39.30185],[-76.67425,39.3022],[-76.67366,39.30298],[-76.67351,39.30351],[-76.67412,39.30573],[-76.67409,39.30629],[-76.6755,39.30589],[-76.6768,39.30678],[-76.67861,39.30663],[-76.67912,39.30682],[-76.67986,39.30739],[-76.67968,39.30827],[-76.67973,39.30913],[-76.68005,39.31003],[-76.68056,39.31077],[-76.66132,39.31146],[-76.66144,39.31336],[-76.66175,39.31472],[-76.65988,39.31517],[-76.65979,39.31181],[-76.65998,39.30939],[-76.65131,39.30971],[-76.65099,39.30341]]]},"properties":{"csa":"Greater Rosemont","pop":15099,"parcels":8085,"violent_crime_rate":26.822968408503876,"bnia_vacant_pct":16.74876847}},{"type":"Feature","geometry":{"type":"Polygon","coordinates":[[[-76.5297,39.35562],[-76.54124,39.34541],[-76.55246,39.33758],[-76.55362,39.33974],[-76.56004,39.34743],[-76.56115,39.34857],[-76.5629,39.34969],[-76.56332,39.35012],[-76.55187,39.36341],[-76.53787,39.35832],[-76.53576,39.35812],[-76.52969,39.35653],[-76.5297,39.35562]]]},"properties":{"csa":"Hamilton","pop":12391,"parcels":4686,"violent_crime_rate":9.280929707045436,"bnia_vacant_pct":0.620404412}},{"type":"Feature","geometry":{"type":"Polygon","coordinates":[[[-76.53576,39.35812],[-76.53787,39.35832],[-76.55187,39.36341],[-76.56332,39.35012],[-76.56527,39.35208],[-76.56633,39.35269],[-76.57305,39.35391],[-76.57278,39.35475],[-76.57318,39.35555],[-76.57288,39.3571],[-76.57297,39.35743],[-76.57344,39.35777],[-76.57312,39.35968],[-76.57309,39.36139],[-76.57347,39.3649],[-76.57401,39.36695],[-76.57398,39.36768],[-76.5734,39.36872],[-76.57012,39.372],[-76.52968,39.37198],[-76.52969,39.35653],[-76.53576,39.35812]]]},"properties":{"csa":"Harford/Echodale","pop":16450,"parcels":5437,"violent_crime_rate":10.030395136778116,"bnia_vacant_pct":0.47355959}},{"type":"Feature","geometry":{"type":"Polygon","coordinates":[[[-76.56239,39.28071],[-76.56319,39.27951],[-76.56419,39.27861],[-76.57101,39.27833],[-76.5716,39.28747],[-76.56908,39.28756],[-76.56941,39.29249],[-76.5628,39.29274],[-76.56209,39.28152],[-76.56239,39.28071]]]},"properties":{"csa":"Highlandtown","pop":8820,"parcels":3674,"violent_crime_rate":20.861678004535147,"bnia_vacant_pct":0.956790123}},{"type":"Feature","geometry":{"type":"Polygon","coordinates":[[[-76.68348,39.34077],[-76.68936,39.34076],[-76.68936,39.33398],[-76.69086,39.33101],[-76.68864,39.33044],[-76.68859,39.32918],[-76.68742,39.32884],[-76.68992,39.32363],[-76.69452,39.32223],[-76.70177,39.3196],[-76.70452,39.32203],[-76.7084,39.32181],[-76.71122,39.3209],[-76.71126,39.34957],[-76.70671,39.35282],[-76.7056,39.35271],[-76.7037,39.35151],[-76.69979,39.34981],[-76.6927,39.34551],[-76.6889,39.34351],[-76.68509,39.34191],[-76.68297,39.34133],[-76.68348,39.34077]]]},"properties":{"csa":"Howard Park/West Arlington","pop":9386,"parcels":3457,"violent_crime_rate":14.59620711698274,"bnia_vacant_pct":1.398601399}},{"type":"Feature","geometry":{"type":"Polygon","coordinates":[[[-76.60483,39.28509],[-76.60504,39.28508],[-76.60499,39.28437],[-76.60476,39.28439],[-76.60519,39.28434],[-76.60501,39.28343],[-76.60587,39.28381],[-76.60611,39.28662],[-76.60666,39.28661],[-76.60646,39.2841],[-76.60723,39.28429],[-76.60745,39.28662],[-76.60802,39.2866],[-76.6078,39.28447],[-76.6085,39.28469],[-76.60865,39.28601],[-76.60935,39.28597],[-76.60958,39.28581],[-76.60987,39.28597],[-76.61073,39.28596],[-76.61068,39.28538],[-76.61106,39.28538],[-76.61109,39.28594],[-76.61138,39.28593],[-76.61184,39.28551],[-76.61163,39.28221],[-76.61117,39.28189],[-76.60769,39.28197],[-76.60746,39.28213],[-76.6075,39.28241],[-76.60715,39.28238],[-76.60702,39.28159],[-76.60659,39.28157],[-76.60572,39.2811],[-76.60516,39.28058],[-76.60512,39.28013],[-76.60475,39.28015],[-76.60468,39.27999],[-76.60573,39.27978],[-76.60589,39.27961],[-76.60587,39.27921],[-76.60425,39.27938],[-76.60425,39.27924],[-76.60587,39.27905],[-76.60584,39.27857],[-76.60387,39.27874],[-76.60388,39.2786],[-76.60534,39.27846],[-76.60567,39.27798],[-76.60558,39.27778],[-76.60487,39.27786],[-76.60483,39.27771],[-76.60443,39.27771],[-76.60401,39.27777],[-76.60386,39.27795],[-76.60326,39.27795],[-76.60385,39.27771],[-76.60378,39.27731],[-76.60463,39.27722],[-76.60452,39.27666],[-76.60425,39.27658],[-76.60436,39.27542],[-76.60346,39.27552],[-76.6034,39.27495],[-76.60165,39.27511],[-76.60201,39.27468],[-76.6007,39.27427],[-76.60037,39.27438],[-76.59946,39.27408],[-76.59959,39.27382],[-76.59941,39.27375],[-76.59888,39.27436],[-76.59947,39.27335],[-76.59901,39.27337],[-76.59886,39.27303],[-76.59839,39.27401],[-76.59821,39.27395],[-76.59869,39.27292],[-76.59891,39.27285],[-76.59866,39.27274],[-76.59808,39.27372],[-76.59734,39.27333],[-76.59887,39.27079],[-76.60527,39.273],[-76.61175,39.27272],[-76.61151,39.27116],[-76.61157,39.27063],[-76.61598,39.27046],[-76.61611,39.27255],[-76.61861,39.27248],[-76.61873,39.27393],[-76.62096,39.27466],[-76.6192,39.27851],[-76.61908,39.27897],[-76.61943,39.27963],[-76.62083,39.28054],[-76.62417,39.2815],[-76.62501,39.28192],[-76.62555,39.28249],[-76.62754,39.28605],[-76.60542,39.28685],[-76.60483,39.28509]]]},"properties":{"csa":"Inner Harbor/Federal Hill","pop":15124,"parcels":6253,"violent_crime_rate":18.249140439037294,"bnia_vacant_pct":0.30155805}},{"type":"Feature","geometry":{"type":"Polygon","coordinates":[[[-76.5629,39.34969],[-76.56115,39.34857],[-76.56004,39.34743],[-76.55362,39.33974],[-76.55246,39.33758],[-76.56079,39.33176],[-76.56761,39.32636],[-76.56821,39.32736],[-76.56973,39.32663],[-76.57031,39.32659],[-76.57071,39.32688],[-76.57083,39.32741],[-76.56974,39.32828],[-76.5696,39.32861],[-76.57019,39.32974],[-76.57332,39.33088],[-76.57497,39.33178],[-76.57532,39.33217],[-76.57528,39.33294],[-76.57502,39.33319],[-76.57531,39.33361],[-76.57685,39.33373],[-76.5774,39.33337],[-76.57802,39.33349],[-76.57842,39.33385],[-76.57767,39.33346],[-76.57744,39.33344],[-76.57728,39.33364],[-76.57835,39.33444],[-76.57871,39.33525],[-76.579,39.33542],[-76.57889,39.33566],[-76.57969,39.33598],[-76.58018,39.336],[-76.5802,39.33613],[-76.57966,39.33611],[-76.57891,39.33584],[-76.57871,39.33564],[-76.57885,39.33547],[-76.57867,39.33537],[-76.57829,39.33626],[-76.57797,39.33811],[-76.5764,39.33897],[-76.57677,39.33933],[-76.57813,39.33998],[-76.57871,39.34118],[-76.57928,39.34164],[-76.58002,39.34174],[-76.58126,39.34148],[-76.58172,39.3416],[-76.58143,39.34334],[-76.58113,39.34401],[-76.58118,39.34372],[-76.5807,39.34452],[-76.5813,39.34691],[-76.58105,39.34777],[-76.5813,39.34827],[-76.58188,39.34854],[-76.58193,39.34887],[-76.58144,39.3494],[-76.58033,39.34974],[-76.57945,39.35046],[-76.57866,39.3503],[-76.57802,39.34979],[-76.57744,39.34982],[-76.57715,39.35014],[-76.57719,39.35081],[-76.57742,39.35156],[-76.57784,39.35222],[-76.57773,39.35241],[-76.57695,39.35263],[-76.57451,39.35251],[-76.57305,39.35391],[-76.56633,39.35269],[-76.56527,39.35208],[-76.5629,39.34969]]]},"properties":{"csa":"Lauraville","pop":11324,"parcels":4744,"violent_crime_rate":9.184033910279053,"bnia_vacant_pct":1.14580993}},{"type":"Feature","geometry":{"type":"Polygon","coordinates":[[[-76.57573,39.35496],[-76.57628,39.35464],[-76.57829,39.35444],[-76.57919,39.35463],[-76.58132,39.35548],[-76.58243,39.3556],[-76.58956,39.35542],[-76.59057,39.35515],[-76.59241,39.35428],[-76.59491,39.35406],[-76.59482,39.35447],[-76.59521,39.35536],[-76.5957,39.35582],[-76.5958,39.35629],[-76.59754,39.35818],[-76.59794,39.35891],[-76.5982,39.36009],[-76.59811,39.36045],[-76.59832,39.36105],[-76.59808,39.36259],[-76.59785,39.36298],[-76.59823,39.36393],[-76.59858,39.36421],[-76.59868,39.36466],[-76.59913,39.3651],[-76.59972,39.36661],[-76.59946,39.36708],[-76.59983,39.36723],[-76.60028,39.36809],[-76.60009,39.36866],[-76.60024,39.36897],[-76.60002,39.36877],[-76.59912,39.36978],[-76.59842,39.3701],[-76.59815,39.37045],[-76.59743,39.37089],[-76.59714,39.3719],[-76.59746,39.37201],[-76.57012,39.372],[-76.5734,39.36872],[-76.57382,39.36811],[-76.57401,39.36749],[-76.57397,39.36673],[-76.57347,39.3649],[-76.57309,39.36139],[-76.57312,39.35968],[-76.57344,39.35777],[-76.57297,39.35743],[-76.57288,39.3571],[-76.57318,39.35555],[-76.57278,39.35475],[-76.57305,39.35391],[-76.57573,39.35496]]]},"properties":{"csa":"Loch Raven","pop":14161,"parcels":4307,"violent_crime_rate":15.394393051338183,"bnia_vacant_pct":0.521574206}},{"type":"Feature","geometry":{"type":"Polygon","coordinates":[[[-76.58219,39.30251],[-76.57959,39.30241],[-76.57282,39.30251],[-76.57258,39.29711],[-76.58771,39.2965],[-76.58812,39.30318],[-76.58689,39.30251],[-76.58544,39.30232],[-76.58219,39.30251]]]},"properties":{"csa":"Madison/East End","pop":6093,"parcels":3603,"violent_crime_rate":31.347447891022487,"bnia_vacant_pct":12.64543784}},{"type":"Feature","geometry":{"type":"Polygon","coordinates":[[[-76.62397,39.33477],[-76.62315,39.3338],[-76.62318,39.33361],[-76.62379,39.33311],[-76.62452,39.3318],[-76.6257,39.33145],[-76.62598,39.33099],[-76.62496,39.3283],[-76.62516,39.32689],[-76.62505,39.32659],[-76.6254,39.32626],[-76.62501,39.32575],[-76.6236,39.32642],[-76.62307,39.32641],[-76.62198,39.32532],[-76.62052,39.32467],[-76.61998,39.32477],[-76.62029,39.32461],[-76.62012,39.32426],[-76.61931,39.31109],[-76.62311,39.31098],[-76.62475,39.31193],[-76.6259,39.31294],[-76.62645,39.31291],[-76.6299,39.31665],[-76.63039,39.31683],[-76.63001,39.31689],[-76.62863,39.31596],[-76.62964,39.318],[-76.63029,39.31999],[-76.6328,39.32382],[-76.63367,39.32451],[-76.63574,39.32573],[-76.63677,39.32607],[-76.63924,39.32651],[-76.64036,39.32723],[-76.64123,39.32753],[-76.64289,39.32961],[-76.64339,39.32991],[-76.64459,39.32971],[-76.64459,39.33031],[-76.64489,39.33091],[-76.64539,39.33071],[-76.64619,39.32991],[-76.64789,39.32961],[-76.65204,39.33098],[-76.654,39.33025],[-76.6559,39.33334],[-76.65591,39.33455],[-76.65623,39.33551],[-76.65651,39.33767],[-76.65769,39.33897],[-76.65799,39.34016],[-76.65842,39.34077],[-76.65768,39.34095],[-76.65637,39.34159],[-76.65447,39.34209],[-76.65099,39.34453],[-76.65012,39.34492],[-76.64539,39.3454],[-76.64429,39.34538],[-76.64278,39.34499],[-76.64028,39.34339],[-76.64022,39.34322],[-76.6393,39.34293],[-76.63799,39.34296],[-76.63543,39.34391],[-76.63512,39.34262],[-76.63471,39.34187],[-76.6328,39.34049],[-76.63192,39.33953],[-76.63115,39.3393],[-76.62882,39.33945],[-76.62801,39.3393],[-76.6259,39.33755],[-76.62556,39.33736],[-76.6255,39.33751],[-76.62383,39.33647],[-76.62397,39.33477]]]},"properties":{"csa":"Medfield/Hampden/Woodberry/Remington","pop":17733,"parcels":7879,"violent_crime_rate":10.601703039530818,"bnia_vacant_pct":0.744199621}},{"type":"Feature","geometry":{"type":"Polygon","coordinates":[[[-76.58931,39.32729],[-76.58535,39.32732],[-76.58457,39.32704],[-76.58737,39.32368],[-76.59015,39.3218],[-76.59871,39.31348],[-76.59936,39.31194],[-76.60946,39.31141],[-76.60947,39.31941],[-76.60599,39.31941],[-76.60153,39.31875],[-76.59402,39.32609],[-76.59396,39.32628],[-76.5944,39.3271],[-76.59511,39.3279],[-76.59513,39.32832],[-76.58922,39.32831],[-76.58931,39.32729]]]},"properties":{"csa":"Midway/Coldstream","pop":7393,"parcels":4691,"violent_crime_rate":25.69998647369133,"bnia_vacant_pct":17.808558}},{"type":"Feature","geometry":{"type":"Polygon","coordinates":[[[-76.65604,39.27615],[-76.65547,39.27595],[-76.65521,39.27559],[-76.65539,39.27511],[-76.65539,39.27441],[-76.65485,39.27126],[-76.65337,39.27155],[-76.65195,39.27158],[-76.65112,39.27197],[-76.64999,39.27192],[-76.64837,39.27125],[-76.64401,39.27087],[-76.64375,39.27067],[-76.64219,39.27072],[-76.6367,39.27009],[-76.64219,39.26581],[-76.64839,39.26151],[-76.65199,39.25881],[-76.65649,39.25721],[-76.65969,39.25591],[-76.66012,39.25559],[-76.69959,39.2728],[-76.69279,39.27181],[-76.68944,39.27218],[-76.68877,39.2734],[-76.68859,39.27408],[-76.68815,39.27459],[-76.68662,39.27543],[-76.68547,39.27529],[-76.68491,39.27537],[-76.68347,39.27642],[-76.68297,39.27655],[-76.68295,39.27685],[-76.68217,39.27726],[-76.68127,39.27681],[-76.68079,39.27717],[-76.67925,39.27701],[-76.67833,39.27601],[-76.67735,39.27525],[-76.67708,39.27474],[-76.67641,39.2742],[-76.67577,39.27411],[-76.67499,39.27521],[-76.67149,39.27591],[-76.66914,39.27573],[-76.66589,39.27572],[-76.66519,39.27541],[-76.66459,39.27601],[-76.66187,39.27663],[-76.66175,39.27638],[-76.66204,39.2762],[-76.6615,39.27624],[-76.66022,39.27486],[-76.65963,39.27456],[-76.65913,39.27451],[-76.65849,39.27476],[-76.65818,39.27538],[-76.6577,39.27583],[-76.6576,39.27567],[-76.65726,39.276],[-76.65604,39.27615]]]},"properties":{"csa":"Morrell Park/Violetville","pop":8557,"parcels":3694,"violent_crime_rate":20.334229285964707,"bnia_vacant_pct":2.060875079}},{"type":"Feature","geometry":{"type":"Polygon","coordinates":[[[-76.65023,39.34488],[-76.65099,39.34453],[-76.65447,39.34209],[-76.65637,39.34159],[-76.65823,39.34079],[-76.65796,39.34138],[-76.65725,39.3422],[-76.65715,39.34264],[-76.65744,39.34323],[-76.65904,39.3446],[-76.65958,39.34576],[-76.65912,39.34786],[-76.65987,39.35296],[-76.6602,39.3543],[-76.65991,39.35502],[-76.65913,39.35551],[-76.65923,39.35564],[-76.6606,39.35514],[-76.66155,39.35502],[-76.6633,39.3553],[-76.66469,39.35626],[-76.66591,39.35763],[-76.67082,39.35677],[-76.67175,39.36064],[-76.67134,39.3622],[-76.6734,39.36465],[-76.67413,39.36634],[-76.67554,39.36736],[-76.67715,39.36891],[-76.67799,39.37104],[-76.67817,39.37199],[-76.64977,39.372],[-76.64846,39.36837],[-76.64819,39.36721],[-76.6478,39.36656],[-76.64762,39.36548],[-76.64623,39.36143],[-76.64859,39.36103],[-76.64871,39.36087],[-76.65026,39.3605],[-76.65028,39.36015],[-76.64969,39.35637],[-76.64931,39.35573],[-76.64793,39.35421],[-76.64625,39.35019],[-76.64623,39.34951],[-76.64702,39.34525],[-76.65023,39.34488]]]},"properties":{"csa":"Mount Washington/Coldspring","pop":5790,"parcels":2259,"violent_crime_rate":3.1088082901554404,"bnia_vacant_pct":0.217273221}},{"type":"Feature","geometry":{"type":"Polygon","coordinates":[[[-76.60952,39.34537],[-76.60945,39.33094],[-76.61056,39.33104],[-76.61201,39.33149],[-76.61299,39.33196],[-76.61397,39.33268],[-76.61507,39.33256],[-76.61629,39.33146],[-76.62383,39.33647],[-76.62378,39.33693],[-76.62406,39.33745],[-76.62575,39.33923],[-76.62574,39.34103],[-76.62593,39.34223],[-76.62568,39.34287],[-76.6257,39.34404],[-76.62655,39.34531],[-76.62693,39.3463],[-76.62693,39.34694],[-76.62746,39.34728],[-76.62743,39.34762],[-76.62783,39.34805],[-76.62781,39.34838],[-76.6281,39.34873],[-76.62861,39.35037],[-76.62844,39.35053],[-76.62878,39.35082],[-76.62896,39.35126],[-76.62898,39.35214],[-76.62971,39.3538],[-76.62969,39.35517],[-76.6302,39.35641],[-76.63,39.35665],[-76.63013,39.3568],[-76.62995,39.35747],[-76.63038,39.35872],[-76.63013,39.35975],[-76.62984,39.36017],[-76.62957,39.36029],[-76.62964,39.3606],[-76.63009,39.36111],[-76.62961,39.3627],[-76.62906,39.36348],[-76.62829,39.36409],[-76.62846,39.36467],[-76.62795,39.36586],[-76.62851,39.36539],[-76.62898,39.36523],[-76.63167,39.3655],[-76.63155,39.36872],[-76.63281,39.36878],[-76.63419,39.36934],[-76.6338,39.36971],[-76.63348,39.3709],[-76.63392,39.37201],[-76.60977,39.37201],[-76.60996,39.36332],[-76.60989,39.3555],[-76.60952,39.34537]]]},"properties":{"csa":"North Baltimore/Guilford/Homeland","pop":17626,"parcels":5767,"violent_crime_rate":3.0636559627822533,"bnia_vacant_pct":0.27456364}},{"type":"Feature","geometry":{"type":"Polygon","coordinates":[[[-76.57451,39.35251],[-76.57695,39.35263],[-76.57773,39.35241],[-76.57784,39.35222],[-76.57742,39.35156],[-76.57719,39.35081],[-76.57715,39.35014],[-76.57744,39.34982],[-76.57802,39.34979],[-76.57866,39.3503],[-76.57945,39.35046],[-76.58033,39.34974],[-76.58144,39.3494],[-76.58194,39.34884],[-76.58188,39.34854],[-76.5813,39.34827],[-76.58105,39.34777],[-76.5813,39.34691],[-76.5807,39.34452],[-76.58118,39.34372],[-76.58113,39.34401],[-76.58143,39.34334],[-76.58172,39.3416],[-76.58126,39.34148],[-76.58002,39.34174],[-76.57928,39.34164],[-76.57871,39.34118],[-76.57813,39.33998],[-76.57677,39.33933],[-76.5764,39.33897],[-76.57797,39.33811],[-76.57829,39.33626],[-76.57867,39.33537],[-76.57885,39.33547],[-76.57871,39.33564],[-76.57891,39.33584],[-76.57966,39.33611],[-76.5802,39.33613],[-76.58018,39.336],[-76.57969,39.33598],[-76.57889,39.33566],[-76.579,39.33542],[-76.57871,39.33525],[-76.57835,39.33444],[-76.57728,39.33364],[-76.57744,39.33344],[-76.57767,39.33346],[-76.57842,39.33385],[-76.57802,39.33349],[-76.5774,39.33337],[-76.57699,39.33369],[-76.57669,39.33373],[-76.57874,39.33194],[-76.58091,39.33046],[-76.58385,39.32791],[-76.58457,39.32704],[-76.58535,39.32732],[-76.58931,39.32729],[-76.58922,39.32831],[-76.59513,39.32832],[-76.59512,39.33244],[-76.59525,39.33353],[-76.59495,39.33434],[-76.59542,39.334],[-76.59613,39.33498],[-76.59881,39.33722],[-76.5997,39.33834],[-76.60014,39.33936],[-76.6002,39.34008],[-76.59985,39.34423],[-76.59825,39.35416],[-76.59661,39.35399],[-76.59331,39.35413],[-76.59215,39.35436],[-76.59057,39.35515],[-76.58956,39.35542],[-76.58243,39.3556],[-76.58132,39.35548],[-76.57919,39.35463],[-76.57829,39.35444],[-76.57628,39.35464],[-76.57573,39.35496],[-76.57305,39.35391],[-76.57451,39.35251]]]},"properties":{"csa":"Northwood","pop":14533,"parcels":4823,"violent_crime_rate":15.688433220945434,"bnia_vacant_pct":0.494092374}},{"type":"Feature","geometry":{"type":"Polygon","coordinates":[[[-76.53044,39.2848],[-76.53526,39.28195],[-76.53585,39.28176],[-76.55404,39.28104],[-76.55455,39.2813],[-76.55465,39.28213],[-76.55527,39.28094],[-76.55739,39.2809],[-76.55749,39.28161],[-76.55819,39.28161],[-76.55818,39.28087],[-76.56101,39.28077],[-76.56129,39.28171],[-76.56199,39.28171],[-76.56209,39.28152],[-76.5628,39.29274],[-76.56941,39.29249],[-76.56987,39.29933],[-76.57265,39.29923],[-76.57305,39.30933],[-76.56864,39.3094],[-76.56596,39.30894],[-76.55969,39.30431],[-76.55929,39.30421],[-76.55389,39.30012],[-76.55383,39.29992],[-76.53919,39.30449],[-76.53597,39.30601],[-76.52975,39.3102],[-76.52978,39.28484],[-76.53044,39.2848]]]},"properties":{"csa":"Orangeville/East Highlandtown","pop":11502,"parcels":4780,"violent_crime_rate":24.517475221700575,"bnia_vacant_pct":1.662049861}},{"type":"Feature","geometry":{"type":"Polygon","coordinates":[[[-76.56908,39.28756],[-76.5716,39.28747],[-76.5714,39.28441],[-76.5771,39.2842],[-76.57722,39.28624],[-76.57582,39.28632],[-76.57619,39.29223],[-76.58742,39.29179],[-76.58771,39.2965],[-76.57258,39.29711],[-76.57265,39.29923],[-76.56987,39.29933],[-76.56908,39.28756]]]},"properties":{"csa":"Patterson Park North & East","pop":14320,"parcels":6656,"violent_crime_rate":18.505586592178773,"bnia_vacant_pct":3.024604294}},{"type":"Feature","geometry":{"type":"Polygon","coordinates":[[[-76.64251,39.31007],[-76.65207,39.31806],[-76.65758,39.3254],[-76.65655,39.32644],[-76.6552,39.32935],[-76.65383,39.33034],[-76.65204,39.33098],[-76.64789,39.32961],[-76.64619,39.32991],[-76.64539,39.33071],[-76.64489,39.33091],[-76.64459,39.33031],[-76.64459,39.32971],[-76.64339,39.32991],[-76.64289,39.32961],[-76.64123,39.32753],[-76.64036,39.32723],[-76.63924,39.32651],[-76.63599,39.32583],[-76.63474,39.32518],[-76.63292,39.32393],[-76.63029,39.31999],[-76.62964,39.318],[-76.62863,39.31596],[-76.63001,39.31689],[-76.63039,39.31683],[-76.6299,39.31665],[-76.62645,39.31291],[-76.6259,39.31294],[-76.62475,39.31193],[-76.62311,39.31098],[-76.64251,39.31007]]]},"properties":{"csa":"Penn North/Reservoir Hill","pop":8072,"parcels":3441,"violent_crime_rate":21.30822596630327,"bnia_vacant_pct":13.42237062}},{"type":"Feature","geometry":{"type":"Polygon","coordinates":[[[-76.6619,39.34673],[-76.66882,39.34661],[-76.67232,39.34466],[-76.67386,39.34103],[-76.6782,39.34225],[-76.68081,39.34168],[-76.68231,39.34213],[-76.69011,39.3476],[-76.68781,39.34928],[-76.67974,39.35368],[-76.67348,39.35637],[-76.67227,39.35684],[-76.67212,39.35666],[-76.67078,39.35647],[-76.67082,39.35677],[-76.66591,39.35763],[-76.66469,39.35626],[-76.6633,39.3553],[-76.66155,39.35502],[-76.6606,39.35514],[-76.65923,39.35564],[-76.65913,39.35551],[-76.65991,39.35502],[-76.6602,39.3543],[-76.65987,39.35296],[-76.65912,39.34786],[-76.65944,39.3465],[-76.6619,39.34673]]]},"properties":{"csa":"Pimlico/Arlington/Hilltop","pop":9376,"parcels":4451,"violent_crime_rate":19.624573378839592,"bnia_vacant_pct":12.28070175}},{"type":"Feature","geometry":{"type":"Polygon","coordinates":[[[-76.63797,39.28559],[-76.63844,39.29418],[-76.62766,39.29465],[-76.62773,39.29359],[-76.62744,39.29052],[-76.62807,39.28766],[-76.62792,39.28671],[-76.62754,39.28605],[-76.63797,39.28559]]]},"properties":{"csa":"Poppleton/The Terraces/Hollins Market","pop":4728,"parcels":2164,"violent_crime_rate":30.456852791878173,"bnia_vacant_pct":8.026509573}},{"type":"Feature","geometry":{"type":"Polygon","coordinates":[[[-76.63191,39.29446],[-76.65038,39.29375],[-76.65065,39.29864],[-76.65152,39.29861],[-76.65149,39.29881],[-76.65129,39.29981],[-76.65079,39.30081],[-76.64891,39.30302],[-76.65099,39.30341],[-76.65131,39.30971],[-76.64251,39.31007],[-76.6388,39.30696],[-76.63191,39.29446]]]},"properties":{"csa":"Sandtown-Winchester/Harlem Park","pop":10531,"parcels":7604,"violent_crime_rate":32.285632893362454,"bnia_vacant_pct":28.42580214}},{"type":"Feature","geometry":{"type":"MultiPolygon","coordinates":[[[[-76.62599,39.26692],[-76.62631,39.26688],[-76.62626,39.267],[-76.62589,39.26719],[-76.62599,39.26692]]],[[[-76.59031,39.2754],[-76.58932,39.27569],[-76.58917,39.27545],[-76.58941,39.27494],[-76.5892,39.27475],[-76.58883,39.2747],[-76.58855,39.27515],[-76.58837,39.27508],[-76.58943,39.27318],[-76.58927,39.27286],[-76.5889,39.2728],[-76.58843,39.27322],[-76.58721,39.27266],[-76.5879,39.27156],[-76.58676,39.27126],[-76.58694,39.27075],[-76.58668,39.27066],[-76.58563,39.27247],[-76.58547,39.27238],[-76.58653,39.27052],[-76.58606,39.27019],[-76.58462,39.27249],[-76.58411,39.2723],[-76.58558,39.26996],[-76.58524,39.26984],[-76.58532,39.26959],[-76.58496,39.26942],[-76.58308,39.27223],[-76.58205,39.27155],[-76.58392,39.2686],[-76.58318,39.26806],[-76.58125,39.27095],[-76.58069,39.27065],[-76.58061,39.27047],[-76.58273,39.26731],[-76.58199,39.26711],[-76.58125,39.2685],[-76.58112,39.26818],[-76.58091,39.26813],[-76.58026,39.26831],[-76.58014,39.26856],[-76.58023,39.26823],[-76.58002,39.26811],[-76.58066,39.26724],[-76.58026,39.26684],[-76.57809,39.26551],[-76.57769,39.26446],[-76.57761,39.26386],[-76.57798,39.26296],[-76.57868,39.26196],[-76.57939,39.26142],[-76.58026,39.26146],[-76.58147,39.26296],[-76.58249,39.2636],[-76.58311,39.26326],[-76.58399,39.26209],[-76.58446,39.26192],[-76.58518,39.26229],[-76.58578,39.26191],[-76.58616,39.26142],[-76.58678,39.26128],[-76.5883,39.2613],[-76.5894,39.26154],[-76.58967,39.26102],[-76.59198,39.26211],[-76.59478,39.2631],[-76.59618,39.26349],[-76.60039,39.26419],[-76.59889,39.26214],[-76.59933,39.26195],[-76.60236,39.26598],[-76.60254,39.26596],[-76.60341,39.2652],[-76.60462,39.26445],[-76.60079,39.2614],[-76.60485,39.26428],[-76.60524,39.26396],[-76.60297,39.26209],[-76.60319,39.26205],[-76.60537,39.26374],[-76.60596,39.26342],[-76.60368,39.2617],[-76.60396,39.26152],[-76.60606,39.26334],[-76.60647,39.26312],[-76.60654,39.26264],[-76.60713,39.26236],[-76.60762,39.26239],[-76.60831,39.26204],[-76.60782,39.26156],[-76.6075,39.26153],[-76.60499,39.25923],[-76.60543,39.25934],[-76.60565,39.25959],[-76.60625,39.25934],[-76.60663,39.25911],[-76.60643,39.25866],[-76.60719,39.25847],[-76.60748,39.25748],[-76.60805,39.25704],[-76.60789,39.25693],[-76.60923,39.25661],[-76.61042,39.25593],[-76.61077,39.25606],[-76.61059,39.25715],[-76.61103,39.25786],[-76.6126,39.25818],[-76.61286,39.25841],[-76.61301,39.25972],[-76.61305,39.25984],[-76.61335,39.25971],[-76.6135,39.26057],[-76.61411,39.26075],[-76.61426,39.26098],[-76.61476,39.26085],[-76.61524,39.25988],[-76.61545,39.2599],[-76.61496,39.26132],[-76.61525,39.2617],[-76.61572,39.26169],[-76.61619,39.26091],[-76.61592,39.26077],[-76.61626,39.26052],[-76.61663,39.26091],[-76.6177,39.2611],[-76.61835,39.26145],[-76.61798,39.26198],[-76.61832,39.26276],[-76.61977,39.2626],[-76.62088,39.2632],[-76.62119,39.26381],[-76.62122,39.26456],[-76.6217,39.26506],[-76.62149,39.26525],[-76.62067,39.26528],[-76.62041,39.26556],[-76.62043,39.26658],[-76.62098,39.26684],[-76.62101,39.26759],[-76.61831,39.26758],[-76.61819,39.26773],[-76.6215,39.268],[-76.62158,39.26967],[-76.62015,39.26966],[-76.62158,39.26977],[-76.62164,39.27028],[-76.62129,39.27125],[-76.62115,39.27275],[-76.62171,39.27306],[-76.62096,39.27466],[-76.61873,39.27393],[-76.61861,39.27248],[-76.61611,39.27255],[-76.61598,39.27046],[-76.61157,39.27063],[-76.61151,39.27116],[-76.61175,39.27272],[-76.60527,39.273],[-76.59887,39.27079],[-76.59734,39.27333],[-76.59708,39.27328],[-76.59677,39.27388],[-76.59613,39.27407],[-76.59623,39.27422],[-76.59606,39.27432],[-76.59633,39.27463],[-76.59526,39.27506],[-76.59535,39.27519],[-76.59564,39.27501],[-76.59567,39.27513],[-76.59408,39.27578],[-76.59397,39.27537],[-76.59345,39.27554],[-76.59257,39.27517],[-76.59198,39.27614],[-76.59057,39.27591],[-76.59073,39.27566],[-76.59031,39.2754]]]]},"properties":{"csa":"South Baltimore","pop":8208,"parcels":4250,"violent_crime_rate":4.8732943469785575,"bnia_vacant_pct":0.116177752}},{"type":"Feature","geometry":{"type":"Polygon","coordinates":[[[-76.52983,39.24009],[-76.53298,39.23904],[-76.53401,39.24082],[-76.53513,39.24209],[-76.53533,39.24197],[-76.53563,39.24228],[-76.53543,39.24239],[-76.53582,39.24287],[-76.53618,39.24274],[-76.53596,39.24296],[-76.53879,39.24547],[-76.5378,39.24936],[-76.53715,39.25113],[-76.53684,39.25137],[-76.53554,39.25556],[-76.53484,39.25564],[-76.53449,39.25623],[-76.5346,39.2576],[-76.53435,39.25787],[-76.53459,39.25813],[-76.53494,39.25922],[-76.53455,39.25938],[-76.53513,39.25951],[-76.53634,39.26091],[-76.5368,39.261],[-76.53975,39.26345],[-76.53992,39.26431],[-76.53969,39.26494],[-76.53792,39.26427],[-76.53707,39.26358],[-76.53484,39.26112],[-76.5366,39.26367],[-76.53754,39.26425],[-76.53947,39.26507],[-76.53959,39.26547],[-76.53953,39.26633],[-76.53904,39.26665],[-76.53709,39.2665],[-76.53714,39.26672],[-76.53492,39.2664],[-76.53287,39.26579],[-76.53254,39.26597],[-76.53458,39.26655],[-76.53843,39.26697],[-76.53944,39.26693],[-76.53991,39.26658],[-76.54082,39.26398],[-76.54055,39.26263],[-76.54001,39.26184],[-76.53658,39.25918],[-76.53623,39.25835],[-76.53666,39.25665],[-76.53868,39.25332],[-76.53958,39.25349],[-76.53888,39.25325],[-76.53889,39.25311],[-76.54046,39.25053],[-76.54338,39.25236],[-76.54474,39.25289],[-76.55282,39.25775],[-76.55266,39.25799],[-76.55279,39.25809],[-76.55249,39.25829],[-76.55274,39.25831],[-76.55262,39.2585],[-76.55275,39.25853],[-76.55264,39.25865],[-76.55267,39.26025],[-76.55269,39.26039],[-76.55297,39.26047],[-76.55299,39.26071],[-76.55413,39.26074],[-76.55415,39.26096],[-76.55456,39.26095],[-76.55451,39.2597],[-76.55543,39.25953],[-76.55571,39.25926],[-76.55562,39.25766],[-76.55591,39.25746],[-76.556,39.25991],[-76.55618,39.26004],[-76.5561,39.2605],[-76.55577,39.26064],[-76.5558,39.26136],[-76.55674,39.26133],[-76.55683,39.2606],[-76.55724,39.26061],[-76.55786,39.26125],[-76.55933,39.26118],[-76.55884,39.25677],[-76.55979,39.25717],[-76.56002,39.26116],[-76.56116,39.26114],[-76.56106,39.25842],[-76.56134,39.25831],[-76.56175,39.25832],[-76.56191,39.25861],[-76.56191,39.26094],[-76.56294,39.26076],[-76.56278,39.25852],[-76.5631,39.25853],[-76.56301,39.25629],[-76.56329,39.25627],[-76.56333,39.2588],[-76.56436,39.25969],[-76.56462,39.25971],[-76.56475,39.26006],[-76.56541,39.2602],[-76.56596,39.26002],[-76.56615,39.2592],[-76.56706,39.25924],[-76.56708,39.2594],[-76.56814,39.25978],[-76.56826,39.2602],[-76.56838,39.26013],[-76.56836,39.25945],[-76.56809,39.25935],[-76.56842,39.25933],[-76.56844,39.2591],[-76.56866,39.25911],[-76.56865,39.26007],[-76.56917,39.25953],[-76.57117,39.26077],[-76.57159,39.26219],[-76.57129,39.26219],[-76.57125,39.26247],[-76.57144,39.26246],[-76.57173,39.26344],[-76.57104,39.26359],[-76.57109,39.26391],[-76.57066,39.26435],[-76.5688,39.26432],[-76.56883,39.26477],[-76.57179,39.26465],[-76.57179,39.26486],[-76.56888,39.26498],[-76.56893,39.26595],[-76.57122,39.26582],[-76.57156,39.26595],[-76.57153,39.2666],[-76.57062,39.26666],[-76.57064,39.26676],[-76.57247,39.26663],[-76.57246,39.26687],[-76.56941,39.26696],[-76.56934,39.26718],[-76.56897,39.26718],[-76.56899,39.26792],[-76.57253,39.2678],[-76.57258,39.2684],[-76.569,39.26849],[-76.56905,39.26926],[-76.5696,39.26932],[-76.56962,39.26955],[-76.56908,39.26957],[-76.5691,39.26979],[-76.57204,39.26969],[-76.57206,39.27002],[-76.56913,39.27008],[-76.56917,39.27062],[-76.57034,39.27058],[-76.57042,39.27074],[-76.56936,39.27078],[-76.56938,39.27094],[-76.57026,39.27093],[-76.57028,39.27114],[-76.56922,39.27115],[-76.56925,39.27153],[-76.56977,39.27137],[-76.57148,39.27144],[-76.57153,39.27158],[-76.5698,39.27166],[-76.5698,39.27177],[-76.57026,39.27183],[-76.57015,39.27205],[-76.57158,39.27201],[-76.57159,39.27212],[-76.57019,39.27219],[-76.57022,39.27252],[-76.57043,39.2727],[-76.5711,39.27274],[-76.57136,39.27293],[-76.57124,39.27382],[-76.57076,39.27385],[-76.57045,39.27433],[-76.57067,39.27481],[-76.57072,39.27572],[-76.57057,39.27579],[-76.57058,39.27603],[-76.57088,39.27649],[-76.57101,39.27833],[-76.56419,39.27861],[-76.56319,39.27951],[-76.56239,39.28071],[-76.56199,39.28171],[-76.56129,39.28171],[-76.561,39.28077],[-76.55818,39.28087],[-76.55819,39.28161],[-76.55749,39.28161],[-76.55739,39.2809],[-76.55527,39.28094],[-76.55465,39.28213],[-76.55455,39.2813],[-76.55404,39.28104],[-76.53568,39.28178],[-76.53044,39.2848],[-76.52978,39.28484],[-76.52983,39.24009]]]},"properties":{"csa":"Southeastern","pop":6772,"parcels":2383,"violent_crime_rate":22.150029533372713,"bnia_vacant_pct":1.028695181}},{"type":"Feature","geometry":{"type":"Polygon","coordinates":[[[-76.65958,39.34576],[-76.65921,39.34484],[-76.65744,39.34323],[-76.6572,39.34281],[-76.65725,39.3422],[-76.65796,39.34138],[-76.65823,39.34079],[-76.65842,39.34077],[-76.65799,39.34016],[-76.65769,39.33897],[-76.65651,39.33767],[-76.65623,39.33551],[-76.65591,39.33455],[-76.6559,39.33334],[-76.654,39.33025],[-76.6553,39.32921],[-76.65655,39.32644],[-76.65758,39.3254],[-76.65785,39.32575],[-76.65792,39.32563],[-76.65999,39.32612],[-76.66419,39.32732],[-76.6657,39.33302],[-76.66892,39.33498],[-76.67088,39.33564],[-76.67792,39.34002],[-76.67671,39.34184],[-76.67386,39.34103],[-76.67232,39.34466],[-76.66882,39.34661],[-76.6619,39.34673],[-76.65944,39.3465],[-76.65958,39.34576]]]},"properties":{"csa":"Southern Park Heights","pop":10660,"parcels":4805,"violent_crime_rate":19.136960600375232,"bnia_vacant_pct":14.06169666}},{"type":"Feature","geometry":{"type":"Polygon","coordinates":[[[-76.63844,39.29418],[-76.63779,39.28259],[-76.63929,39.28191],[-76.64139,39.28051],[-76.64929,39.27841],[-76.65059,39.27841],[-76.65189,39.27801],[-76.65449,39.27651],[-76.65519,39.27547],[-76.65546,39.27593],[-76.65581,39.27608],[-76.65621,39.27616],[-76.65726,39.276],[-76.65769,39.27621],[-76.66015,39.28067],[-76.65903,39.28139],[-76.65995,39.28255],[-76.65961,39.28468],[-76.65916,39.28563],[-76.65945,39.28622],[-76.66046,39.28696],[-76.66171,39.28731],[-76.6635,39.28752],[-76.66749,39.29221],[-76.66959,39.29351],[-76.66975,39.2942],[-76.66537,39.29436],[-76.66406,39.29341],[-76.66319,39.2932],[-76.63844,39.29418]]]},"properties":{"csa":"Southwest Baltimore","pop":13189,"parcels":9649,"violent_crime_rate":38.82022897869437,"bnia_vacant_pct":28.46910283}},{"type":"Feature","geometry":{"type":"Polygon","coordinates":[[[-76.59542,39.334],[-76.59495,39.33434],[-76.59525,39.33353],[-76.59512,39.33244],[-76.59513,39.32797],[-76.59414,39.32665],[-76.59396,39.32628],[-76.59408,39.32601],[-76.60153,39.31875],[-76.60599,39.31941],[-76.60947,39.31941],[-76.60949,39.33445],[-76.60752,39.33447],[-76.60753,39.33406],[-76.60464,39.3343],[-76.60449,39.334],[-76.59577,39.33399],[-76.5955,39.33416],[-76.59542,39.334]]]},"properties":{"csa":"The Waverlies","pop":7148,"parcels":2985,"violent_crime_rate":19.865696698377167,"bnia_vacant_pct":2.880658436}},{"type":"Feature","geometry":{"type":"Polygon","coordinates":[[[-76.62171,39.27306],[-76.62215,39.27343],[-76.62203,39.27386],[-76.62236,39.27369],[-76.62275,39.2738],[-76.62284,39.27401],[-76.62361,39.27378],[-76.62369,39.27403],[-76.62341,39.27412],[-76.6231,39.27461],[-76.62363,39.27414],[-76.62402,39.27417],[-76.62438,39.27383],[-76.62511,39.27428],[-76.6255,39.27411],[-76.62441,39.27327],[-76.62418,39.27288],[-76.62451,39.27239],[-76.62477,39.27241],[-76.62506,39.27186],[-76.62557,39.27149],[-76.62588,39.27156],[-76.6267,39.27222],[-76.62687,39.27212],[-76.62568,39.27106],[-76.62642,39.26992],[-76.62905,39.27181],[-76.62989,39.27228],[-76.63021,39.27227],[-76.6297,39.27164],[-76.6281,39.27081],[-76.62655,39.26942],[-76.626,39.26936],[-76.62459,39.26971],[-76.62437,39.26963],[-76.62418,39.26926],[-76.62436,39.26912],[-76.6252,39.26943],[-76.62559,39.26923],[-76.62561,39.269],[-76.62604,39.26894],[-76.62844,39.2693],[-76.62832,39.26881],[-76.62692,39.26842],[-76.62612,39.26843],[-76.62627,39.2679],[-76.62902,39.26861],[-76.63571,39.26995],[-76.64108,39.27062],[-76.64375,39.27067],[-76.64401,39.27087],[-76.64837,39.27125],[-76.64999,39.27192],[-76.65112,39.27197],[-76.65195,39.27158],[-76.65337,39.27155],[-76.65485,39.27126],[-76.65539,39.27511],[-76.65449,39.27651],[-76.65189,39.27801],[-76.65059,39.27841],[-76.64929,39.27841],[-76.64139,39.28051],[-76.63929,39.28191],[-76.63779,39.28259],[-76.63797,39.28559],[-76.62754,39.28605],[-76.62555,39.28249],[-76.62501,39.28192],[-76.62417,39.2815],[-76.62083,39.28054],[-76.6197,39.27992],[-76.6193,39.27944],[-76.61908,39.27897],[-76.6192,39.27851],[-76.62171,39.27306]]]},"properties":{"csa":"Washington Village/Pigtown","pop":5189,"parcels":3153,"violent_crime_rate":34.11061861630372,"bnia_vacant_pct":5.001812251}},{"type":"Feature","geometry":{"type":"Polygon","coordinates":[[[-76.62615,39.26761],[-76.62567,39.2673],[-76.62675,39.26658],[-76.62712,39.26532],[-76.62768,39.26529],[-76.62854,39.26382],[-76.62955,39.2627],[-76.62951,39.26246],[-76.62973,39.26243],[-76.62979,39.26231],[-76.62949,39.26187],[-76.62957,39.26157],[-76.63057,39.25978],[-76.63102,39.25932],[-76.63059,39.25945],[-76.63021,39.25927],[-76.63015,39.25896],[-76.63029,39.2589],[-76.62971,39.25866],[-76.63222,39.25757],[-76.63294,39.25777],[-76.6336,39.25839],[-76.6347,39.25538],[-76.63399,39.25031],[-76.63209,39.24732],[-76.62989,39.24471],[-76.62809,39.24291],[-76.62709,39.24241],[-76.62189,39.24151],[-76.61525,39.24102],[-76.61608,39.23998],[-76.61878,39.23753],[-76.66012,39.25559],[-76.65969,39.25591],[-76.65649,39.25721],[-76.65199,39.25881],[-76.64839,39.26151],[-76.64219,39.26581],[-76.6367,39.27009],[-76.63227,39.26931],[-76.62627,39.2679],[-76.62615,39.26761]]]},"properties":{"csa":"Westport/Mount Winans/Lakeland","pop":7031,"parcels":2857,"violent_crime_rate":22.756364670743846,"bnia_vacant_pct":8.089260809}},{"type":"Feature","geometry":{"type":"Polygon","coordinates":[[[-76.58742,39.29179],[-76.59375,39.29154],[-76.59388,39.29396],[-76.59441,39.29396],[-76.60638,39.2907],[-76.60795,39.29212],[-76.6096,39.29308],[-76.61033,39.29379],[-76.61101,39.29602],[-76.61104,39.29772],[-76.60631,39.29789],[-76.60727,39.30136],[-76.59782,39.30174],[-76.59805,39.30521],[-76.58828,39.30562],[-76.58742,39.29179]]]},"properties":{"csa":"Oldtown/Middle East","pop":10009,"parcels":2681,"violent_crime_rate":33.27005694874613,"bnia_vacant_pct":6.466784245}},{"type":"Feature","geometry":{"type":"Polygon","coordinates":[[[-76.59342,39.28558],[-76.59918,39.28532],[-76.59889,39.28235],[-76.60274,39.2822],[-76.60306,39.28294],[-76.60326,39.28302],[-76.60524,39.28846],[-76.60548,39.28857],[-76.6045,39.28564],[-76.60378,39.28314],[-76.6044,39.28309],[-76.60466,39.2844],[-76.60499,39.28437],[-76.60504,39.28508],[-76.60483,39.28509],[-76.60542,39.28685],[-76.60494,39.28687],[-76.60608,39.28992],[-76.60581,39.28996],[-76.60638,39.2907],[-76.59452,39.29396],[-76.59388,39.29396],[-76.59342,39.28558]]]},"properties":{"csa":"Harbor East/Little Italy","pop":5027,"parcels":1939,"violent_crime_rate":34.215237716331806,"bnia_vacant_pct":1.566871852}},{"type":"Feature","geometry":{"type":"Polygon","coordinates":[[[-76.62509,39.30318],[-76.62402,39.30388],[-76.62207,39.30429],[-76.62075,39.30422],[-76.62031,39.30176],[-76.62041,39.30153],[-76.62711,39.29583],[-76.62744,39.29538],[-76.62766,39.29465],[-76.63191,39.29446],[-76.6388,39.30696],[-76.64251,39.31007],[-76.63401,39.31045],[-76.62509,39.30318]]]},"properties":{"csa":"Upton/Druid Heights","pop":8916,"parcels":3351,"violent_crime_rate":34.096007178106774,"bnia_vacant_pct":23.35834897}},{"type":"Feature","geometry":{"type":"Polygon","coordinates":[[[-76.61129,39.30121],[-76.61097,39.29586],[-76.61064,39.2946],[-76.61325,39.29453],[-76.6143,39.29511],[-76.61979,39.29495],[-76.62031,39.30176],[-76.62075,39.30422],[-76.62207,39.30429],[-76.62402,39.30388],[-76.62509,39.30318],[-76.63404,39.31048],[-76.60946,39.31141],[-76.60902,39.30824],[-76.6082,39.30483],[-76.61127,39.30471],[-76.61129,39.30121]]]},"properties":{"csa":"Midtown","pop":17099,"parcels":4511,"violent_crime_rate":15.49798233814843,"bnia_vacant_pct":0.943935927}},{"type":"Feature","geometry":{"type":"Polygon","coordinates":[[[-76.61129,39.30121],[-76.61127,39.30471],[-76.6082,39.30483],[-76.60902,39.30827],[-76.60946,39.31141],[-76.58869,39.31242],[-76.58828,39.30562],[-76.59805,39.30521],[-76.59782,39.30174],[-76.61129,39.30121]]]},"properties":{"csa":"Greenmount East","pop":6955,"parcels":5397,"violent_crime_rate":21.279654924514738,"bnia_vacant_pct":24.46243359}}]}